$$SOE
2460721.500000000, A.D. 2025-Feb-15 00:00:00.0000, -1.214051297859746E+07, -3.488851363700709E+08, -1.596791225383751E+07,
2460728.500000000, A.D. 2025-Feb-22 00:00:00.0000, -6.852678798652687E+05, -3.464164823768272E+08, -1.374954588498959E+07,
2460735.500000000, A.D. 2025-Mar-01 00:00:00.0000, 1.077072539022687E+07, -3.435443381253684E+08, -1.151517196762028E+07,
2460742.500000000, A.D. 2025-Mar-08 00:00:00.0000, 2.221381497252370E+07, -3.402622544924398E+08, -9.267065886495382E+06,
2460749.500000000, A.D. 2025-Mar-15 00:00:00.0000, 3.362968936399042E+07, -3.365640914522551E+08, -7.007637594861314E+06,
2460756.500000000, A.D. 2025-Mar-22 00:00:00.0000, 4.500335809764771E+07, -3.324440672942941E+08, -4.739436486083567E+06,
2460763.500000000, A.D. 2025-Mar-29 00:00:00.0000, 5.631913610280546E+07, -3.278968144864722E+08, -2.465156319141656E+06,
2460770.500000000, A.D. 2025-Apr-05 00:00:00.0000, 6.756063262084357E+07, -3.229174391908544E+08, -1.876398759532571E+05,
2460777.500000000, A.D. 2025-Apr-12 00:00:00.0000, 7.871074336367206E+07, -3.175015844289783E+08, 2.090116943901986E+06,
2460784.500000000, A.D. 2025-Apr-19 00:00:00.0000, 8.975164640640369E+07, -3.116454978210823E+08, 4.364961659939408E+06,
2460791.500000000, A.D. 2025-Apr-26 00:00:00.0000, 1.006648028301315E+08, -3.053461040740012E+08, 6.633582476201385E+06,
2460798.500000000, A.D. 2025-May-03 00:00:00.0000, 1.114309630351548E+08, -2.986010820830444E+08, 8.892506420345709E+06,
2460805.500000000, A.D. 2025-May-10 00:00:00.0000, 1.220301796174898E+08, -2.914089464178531E+08, 1.113809852293462E+07,
2460812.500000000, A.D. 2025-May-17 00:00:00.0000, 1.324418277609030E+08, -2.837691328882515E+08, 1.336656221255040E+07,
2460819.500000000, A.D. 2025-May-24 00:00:00.0000, 1.426446342729217E+08, -2.756820877607200E+08, 1.557394110223250E+07,
2460826.500000000, A.D. 2025-May-31 00:00:00.0000, 1.526167166537214E+08, -2.671493596731766E+08, 1.775612236215368E+07,
2460833.500000000, A.D. 2025-Jun-07 00:00:00.0000, 1.623356327574290E+08, -2.581736922178771E+08, 1.990884202837840E+07,
2460840.500000000, A.D. 2025-Jun-14 00:00:00.0000, 1.717784396055472E+08, -2.487591168223467E+08, 2.202769262367360E+07,
2460847.500000000, A.D. 2025-Jun-21 00:00:00.0000, 1.809217634352097E+08, -2.389110479353691E+08, 2.410813291694269E+07,
2460854.500000000, A.D. 2025-Jun-28 00:00:00.0000, 1.897418848907578E+08, -2.286363772683140E+08, 2.614549987320609E+07,
2460861.500000000, A.D. 2025-Jul-05 00:00:00.0000, 1.982148384863323E+08, -2.179435632416906E+08, 2.813502329042859E+07,
2460868.500000000, A.D. 2025-Jul-12 00:00:00.0000, 2.063165255920779E+08, -2.068427145409618E+08, 3.007184332487775E+07,
2460875.500000000, A.D. 2025-Jul-19 00:00:00.0000, 2.140228413160508E+08, -1.953456662511444E+08, 3.195103096240440E+07,
2460882.500000000, A.D. 2025-Jul-26 00:00:00.0000, 2.213098153609816E+08, -1.834660463375493E+08, 3.376761148296244E+07,
2460889.500000000, A.D. 2025-Aug-02 00:00:00.0000, 2.281537664275438E+08, -1.712193300204776E+08, 3.551659092254042E+07,
2460896.500000000, A.D. 2025-Aug-09 00:00:00.0000, 2.345314692807163E+08, -1.586228795472019E+08, 3.719298546333688E+07,
2460903.500000000, A.D. 2025-Aug-16 00:00:00.0000, 2.404203331895785E+08, -1.456959669046132E+08, 3.879185358748918E+07,
2460910.500000000, A.D. 2025-Aug-23 00:00:00.0000, 2.457985901770684E+08, -1.324597770095089E+08, 4.030833071932073E+07,
2460917.500000000, A.D. 2025-Aug-30 00:00:00.0000, 2.506454910591970E+08, -1.189373883916750E+08, 4.173766603497183E+07,
2460924.500000000, A.D. 2025-Sep-06 00:00:00.0000, 2.549415050200910E+08, -1.051537283940930E+08, 4.307526120123634E+07,
2460931.500000000, A.D. 2025-Sep-13 00:00:00.0000, 2.586685177506997E+08, -9.113550380112992E+07, 4.431671043943883E+07,
2460938.500000000, A.D. 2025-Sep-20 00:00:00.0000, 2.618100277198440E+08, -7.691110747345687E+07, 4.545784082873974E+07,
2460945.500000000, A.D. 2025-Sep-27 00:00:00.0000, 2.643513376285510E+08, -6.251049743463460E+07, 4.649475227899294E+07,
2460952.500000000, A.D. 2025-Oct-04 00:00:00.0000, 2.662797348311267E+08, -4.796504814807425E+07, 4.742385661716213E+07,
2460959.500000000, A.D. 2025-Oct-11 00:00:00.0000, 2.675846560869174E+08, -3.330737598758584E+07, 4.824191491926146E+07,
2460966.500000000, A.D. 2025-Oct-18 00:00:00.0000, 2.682578327587031E+08, -1.857114104601203E+07, 4.894607219886485E+07,
2460973.500000000, A.D. 2025-Oct-25 00:00:00.0000, 2.682934126966311E+08, -3.790827943711426E+06, 4.953388861554340E+07,
2460980.500000000, A.D. 2025-Nov-01 00:00:00.0000, 2.676880553878810E+08, 1.099849094981003E+07, 5.000336642630902E+07,
2460987.500000000, A.D. 2025-Nov-08 00:00:00.0000, 2.664409975531509E+08, 2.576140575250993E+07, 5.035297198478201E+07,
2460994.500000000, A.D. 2025-Nov-15 00:00:00.0000, 2.645540872325532E+08, 4.046242806547259E+07, 5.058165219707917E+07,
2461001.500000000, A.D. 2025-Nov-22 00:00:00.0000, 2.620317855098662E+08, 5.506625392165154E+07, 5.068884498307420E+07,
2461008.500000000, A.D. 2025-Nov-29 00:00:00.0000, 2.588811353808835E+08, 6.953802660849036E+07, 5.067448357666670E+07,
2461015.500000000, A.D. 2025-Dec-06 00:00:00.0000, 2.551116961111453E+08, 8.384359403577322E+07, 5.053899477596338E+07,
2461022.500000000, A.D. 2025-Dec-13 00:00:00.0000, 2.507354450867363E+08, 9.794975227940010E+07, 5.028329092681250E+07,
2461029.500000000, A.D. 2025-Dec-20 00:00:00.0000, 2.457666530559987E+08, 1.118244717134493E+08, 4.990875566375889E+07,
2461036.500000000, A.D. 2025-Dec-27 00:00:00.0000, 2.402217348288108E+08, 1.254371042876930E+08, 4.941722413913078E+07,
2461043.500000000, A.D. 2026-Jan-03 00:00:00.0000, 2.341190777241280E+08, 1.387585680027353E+08, 4.881095838758744E+07,
2461050.500000000, A.D. 2026-Jan-10 00:00:00.0000, 2.274788520614531E+08, 1.517615053618709E+08, 4.809261843635730E+07,
2461057.500000000, A.D. 2026-Jan-17 00:00:00.0000, 2.203228083684266E+08, 1.644204140073862E+08, 4.726522988787589E+07,
2461064.500000000, A.D. 2026-Jan-24 00:00:00.0000, 2.126740658974103E+08, 1.767117487115721E+08, 4.633214877225743E+07,
2461071.500000000, A.D. 2026-Jan-31 00:00:00.0000, 2.045568968972858E+08, 1.886139946771933E+08, 4.529702448458225E+07,
2461078.500000000, A.D. 2026-Feb-07 00:00:00.0000, 1.959965108845524E+08, 2.001077127988498E+08, 4.416376159954146E+07,
2461085.500000000, A.D. 2026-Feb-14 00:00:00.0000, 1.870188429881834E+08, 2.111755582314087E+08, 4.293648130114430E+07,
2461092.500000000, A.D. 2026-Feb-21 00:00:00.0000, 1.776503501271631E+08, 2.218022747412272E+08, 4.161948313848656E+07,
2461099.500000000, A.D. 2026-Feb-28 00:00:00.0000, 1.679178167873804E+08, 2.319746682935944E+08, 4.021720791692424E+07,
2461106.500000000, A.D. 2026-Mar-07 00:00:00.0000, 1.578481706238658E+08, 2.416815605178781E+08, 3.873420227997525E+07,
2461113.500000000, A.D. 2026-Mar-14 00:00:00.0000, 1.474683124166540E+08, 2.509137225053923E+08, 3.717508497731176E+07,
2461120.500000000, A.D. 2026-Mar-21 00:00:00.0000, 1.368049633985883E+08, 2.596637946686890E+08, 3.554451523058347E+07,
2461127.500000000, A.D. 2026-Mar-28 00:00:00.0000, 1.258845286694201E+08, 2.679261964724274E+08, 3.384716370510647E+07,
2461134.500000000, A.D. 2026-Apr-04 00:00:00.0000, 1.147329763708209E+08, 2.756970277393493E+08, 3.208768621701586E+07,
2461141.500000000, A.D. 2026-Apr-11 00:00:00.0000, 1.033757327877252E+08, 2.829739636596054E+08, 3.027070019450514E+07,
2461148.500000000, A.D. 2026-Apr-18 00:00:00.0000, 9.183759309447558E+07, 2.897561457638062E+08, 2.840076388355909E+07,
2461155.500000000, A.D. 2026-Apr-25 00:00:00.0000, 8.014264708519228E+07, 2.960440709058854E+08, 2.648235824865898E+07,
2461162.500000000, A.D. 2026-May-02 00:00:00.0000, 6.831421902166577E+07, 3.018394800131762E+08, 2.451987147556421E+07,
2461169.500000000, A.D. 2026-May-09 00:00:00.0000, 5.637482069935178E+07, 3.071452480669478E+08, 2.251758593543267E+07,
2461176.500000000, A.D. 2026-May-16 00:00:00.0000, 4.434611700290318E+07, 3.119652767176990E+08, 2.047966743199144E+07,
2461183.500000000, A.D. 2026-May-23 00:00:00.0000, 3.224890284939108E+07, 3.163043915732667E+08, 1.841015663355358E+07,
2461190.500000000, A.D. 2026-May-30 00:00:00.0000, 2.010308827703864E+07, 3.201682452608979E+08, 1.631296271649921E+07,
2461197.500000000, A.D. 2026-Jun-06 00:00:00.0000, 7.927690206734431E+06, 3.235632235530859E+08, 1.419185878788757E+07,
2461204.500000000, A.D. 2026-Jun-13 00:00:00.0000, -4.259166581853155E+06, 3.264963551594000E+08, 1.205047857796085E+07,
2461211.500000000, A.D. 2026-Jun-20 00:00:00.0000, -1.644024081029617E+07, 3.289752283700652E+08, 9.892314502307355E+06,
2461218.500000000, A.D. 2026-Jun-27 00:00:00.0000, -2.859916107313929E+07, 3.310079143244909E+08, 7.720717043431044E+06,
2461225.500000000, A.D. 2026-Jul-04 00:00:00.0000, -4.072040812521251E+07, 3.326028961333170E+08, 5.538895221400708E+06,
2461232.500000000, A.D. 2026-Jul-11 00:00:00.0000, -5.278929365158006E+07, 3.337690036401169E+08, 3.349917964501083E+06,
2461239.500000000, A.D. 2026-Jul-18 00:00:00.0000, -6.479193616426890E+07, 3.345153536967301E+08, 1.156716231008515E+06,
2461246.500000000, A.D. 2026-Jul-25 00:00:00.0000, -7.671523465616867E+07, 3.348512957488095E+08, -1.037914249456868E+06,
2461253.500000000, A.D. 2026-Aug-01 00:00:00.0000, -8.854684054027836E+07, 3.347863624370544E+08, -3.231309739902660E+06,
2461260.500000000, A.D. 2026-Aug-08 00:00:00.0000, -1.002751281617668E+08, 3.343302249036880E+08, -5.420934891756296E+06,
2461267.500000000, A.D. 2026-Aug-15 00:00:00.0000, -1.118891639020975E+08, 3.334926529626362E+08, -7.604378865469158E+06,
2461274.500000000, A.D. 2026-Aug-22 00:00:00.0000, -1.233786750082923E+08, 3.322834810563630E+08, -9.779351087045431E+06,
2461281.500000000, A.D. 2026-Aug-29 00:00:00.0000, -1.347340207469014E+08, 3.307125783269804E+08, -1.194367661339183E+07,
2461288.500000000, A.D. 2026-Sep-05 00:00:00.0000, -1.459461640051841E+08, 3.287898196262869E+08, -1.409529159600820E+07,
$$EOE